{
  "norad_id": 67495,
  "name": "STARLINK-36550",
  "history": [
    {
      "epoch": "2026-03-28T17:58:50.899872Z",
      "apogee_km": 483.1534899388089,
      "perigee_km": 482.83033076713036,
      "latitude_deg": 1.3658060727532461e-05,
      "longitude_deg": 111.16585045624012,
      "height_km": 482.6904523441199,
      "semi_major_axis_km": 6861.128910352969,
      "eccentricity": 2.355e-05,
      "inclination_deg": 42.9974,
      "raan_deg": 207.0431,
      "arg_perigee_deg": 298.3762,
      "mean_anomaly_deg": 61.7066,
      "mean_motion_rev_day": 15.27599098
    },
    {
      "epoch": "2026-03-29T00:15:29.873088Z",
      "apogee_km": 485.5736035624741,
      "perigee_km": 480.53748823378555,
      "latitude_deg": 3.428766296411822e-06,
      "longitude_deg": 15.265443594928595,
      "height_km": 481.5939466113345,
      "semi_major_axis_km": 6861.1925458981295,
      "eccentricity": 0.000367,
      "inclination_deg": 43.0007,
      "raan_deg": 205.5629,
      "arg_perigee_deg": 60.6739,
      "mean_anomaly_deg": 299.4479,
      "mean_motion_rev_day": 15.27577846
    },
    {
      "epoch": "2026-03-29T23:47:49.440480Z",
      "apogee_km": 484.6030408495799,
      "perigee_km": 481.42440694221386,
      "latitude_deg": 1.8251674623703284e-05,
      "longitude_deg": 15.679326218568836,
      "height_km": 482.3463317830439,
      "semi_major_axis_km": 6861.150723895897,
      "eccentricity": 0.00023164,
      "inclination_deg": 43.0023,
      "raan_deg": 200.025,
      "arg_perigee_deg": 286.2616,
      "mean_anomaly_deg": 73.7981,
      "mean_motion_rev_day": 15.27591813
    },
    {
      "epoch": "2026-03-30T13:55:14.248128Z",
      "apogee_km": 484.041316249959,
      "perigee_km": 481.9773462105968,
      "latitude_deg": 2.8198478856238187e-05,
      "longitude_deg": 159.92133839831067,
      "height_km": 482.7208685253556,
      "semi_major_axis_km": 6861.146331230278,
      "eccentricity": 0.00015041,
      "inclination_deg": 43.0008,
      "raan_deg": 196.7004,
      "arg_perigee_deg": 273.6302,
      "mean_anomaly_deg": 86.4378,
      "mean_motion_rev_day": 15.2759328
    },
    {
      "epoch": "2026-03-30T15:29:23.556192Z",
      "apogee_km": 483.9111029715077,
      "perigee_km": 482.0363730734507,
      "latitude_deg": -1.0218902569583958e-05,
      "longitude_deg": 135.94866700613423,
      "height_km": 482.7227021338513,
      "semi_major_axis_km": 6861.110738022479,
      "eccentricity": 0.00013662,
      "inclination_deg": 43.0022,
      "raan_deg": 196.331,
      "arg_perigee_deg": 271.7091,
      "mean_anomaly_deg": 88.3604,
      "mean_motion_rev_day": 15.27605167
    },
    {
      "epoch": "2026-03-31T13:27:34.612992Z",
      "apogee_km": 484.13145859398355,
      "perigee_km": 481.85452399507176,
      "latitude_deg": -2.825558053865092e-05,
      "longitude_deg": 160.33151388995563,
      "height_km": 482.8809776282112,
      "semi_major_axis_km": 6861.129991294527,
      "eccentricity": 0.00016593,
      "inclination_deg": 43.0016,
      "raan_deg": 191.1622,
      "arg_perigee_deg": 264.409,
      "mean_anomaly_deg": 95.6572,
      "mean_motion_rev_day": 15.27598737
    },
    {
      "epoch": "2026-04-01T12:59:56.074272Z",
      "apogee_km": 483.75571611141095,
      "perigee_km": 482.3958237404122,
      "latitude_deg": -9.305905045036576e-06,
      "longitude_deg": 160.73758889524217,
      "height_km": 482.72140674147005,
      "semi_major_axis_km": 6861.212769925912,
      "eccentricity": 9.91e-05,
      "inclination_deg": 43.0006,
      "raan_deg": 185.6244,
      "arg_perigee_deg": 281.0898,
      "mean_anomaly_deg": 78.9842,
      "mean_motion_rev_day": 15.27571092
    },
    {
      "epoch": "2026-04-02T12:32:16.517760Z",
      "apogee_km": 483.9290032120871,
      "perigee_km": 481.9885481048159,
      "latitude_deg": -2.1810844663241816e-05,
      "longitude_deg": 161.14688241467135,
      "height_km": 482.55696805086325,
      "semi_major_axis_km": 6861.095775658451,
      "eccentricity": 0.00014141,
      "inclination_deg": 43.0012,
      "raan_deg": 180.0856,
      "arg_perigee_deg": 280.6111,
      "mean_anomaly_deg": 79.4581,
      "mean_motion_rev_day": 15.27610164
    },
    {
      "epoch": "2026-04-02T21:57:11.630880Z",
      "apogee_km": 484.5621945324647,
      "perigee_km": 481.13334878298156,
      "latitude_deg": -2.4556486132646316e-06,
      "longitude_deg": 17.314692320048703,
      "height_km": 482.38828494140915,
      "semi_major_axis_km": 6860.984771657723,
      "eccentricity": 0.00024988,
      "inclination_deg": 43.0027,
      "raan_deg": 177.8697,
      "arg_perigee_deg": 277.957,
      "mean_anomaly_deg": 82.0998,
      "mean_motion_rev_day": 15.27647237
    }
  ]
}